[{"OBJECT_NAME":"KUIPER-00077","OBJECT_ID":"2025-151J","EPOCH":"2026-03-09T19:52:37.813152","MEAN_MOTION":14.80197781,"ECCENTRICITY":8.795e-5,"INCLINATION":51.9019,"RA_OF_ASC_NODE":297.467,"ARG_OF_PERICENTER":199.7162,"MEAN_ANOMALY":160.3766,"EPHEMERIS_TYPE":0,"CLASSIFICATION_TYPE":"U","NORAD_CAT_ID":64824,"ELEMENT_SET_NO":999,"REV_AT_EPOCH":3536,"BSTAR":0.00060451544,"MEAN_MOTION_DOT":4.419e-5,"MEAN_MOTION_DDOT":0},{"OBJECT_NAME":"FENGYUN 1C DEB","OBJECT_ID":"1999-025ALK","EPOCH":"2026-03-09T21:10:09.868224","MEAN_MOTION":14.79109247,"ECCENTRICITY":0.00080855,"INCLINATION":98.7381,"RA_OF_ASC_NODE":219.908,"ARG_OF_PERICENTER":183.3587,"MEAN_ANOMALY":176.7569,"EPHEMERIS_TYPE":0,"CLASSIFICATION_TYPE":"U","NORAD_CAT_ID":30569,"ELEMENT_SET_NO":999,"REV_AT_EPOCH":99492,"BSTAR":0.0044074437,"MEAN_MOTION_DOT":0.00032752,"MEAN_MOTION_DDOT":0}]
